[{"OBJECT_NAME":"OBJECT A","OBJECT_ID":"2024-105A","EPOCH":"2026-03-09T23:44:38.986368","MEAN_MOTION":15.16488121,"ECCENTRICITY":0.00126096,"INCLINATION":97.5907,"RA_OF_ASC_NODE":84.1581,"ARG_OF_PERICENTER":205.4504,"MEAN_ANOMALY":154.6109,"EPHEMERIS_TYPE":0,"CLASSIFICATION_TYPE":"U","NORAD_CAT_ID":59917,"ELEMENT_SET_NO":999,"REV_AT_EPOCH":9799,"BSTAR":0.00023793898,"MEAN_MOTION_DOT":4.573e-5,"MEAN_MOTION_DDOT":0},{"OBJECT_NAME":"CZ-6A DEB","OBJECT_ID":"2022-151CC","EPOCH":"2026-03-09T19:21:24.185952","MEAN_MOTION":15.21292269,"ECCENTRICITY":0.00294338,"INCLINATION":98.6347,"RA_OF_ASC_NODE":160.1892,"ARG_OF_PERICENTER":145.6687,"MEAN_ANOMALY":214.6455,"EPHEMERIS_TYPE":0,"CLASSIFICATION_TYPE":"U","NORAD_CAT_ID":54333,"ELEMENT_SET_NO":999,"REV_AT_EPOCH":17712,"BSTAR":0.0073643753,"MEAN_MOTION_DOT":0.00170206,"MEAN_MOTION_DDOT":0}]
